{"spkid": "50702937", "covariance": {"epoch": "2457569.5", "labels": ["e", "q", "tp", "node", "peri", "i"], "elements": [{"sigma": 6.32913030946538e-08, "name": "e", "units": null, "title": "eccentricity", "value": ".5953052498533778", "label": "e"}, {"label": "q", "units": "au", "value": ".8612785021445736", "title": "perihelion distance", "name": "q", "sigma": 1.31197448330293e-07}, {"label": "tp", "title": "time of perihelion passage", "value": "2457076.647079495873", "units": "TDB", "sigma": 1.57700768886583e-05, "name": "tp"}, {"sigma": 3.14028999095362e-05, "name": "om", "title": "longitude of the ascending node", "value": "14.39599363653848", "units": "deg", "label": "node"}, {"label": "peri", "sigma": 2.94869717757677e-05, "name": "w", "title": "argument of perihelion", "value": "134.6503213539416", "units": "deg"}, {"label": "i", "units": "deg", "title": "inclination", "value": "20.00956424930911", "name": "i", "sigma": 1.38322212492335e-05}], "data": [["4.005789047419333E-15", "-8.265441158663372E-15", "2.242306514227543E-13", "8.490594994764384E-13", "-1.077069619163068E-13", "3.050155797103485E-13"], ["-8.265441158663372E-15", "1.72127704483798E-14", "-4.750086048867082E-13", "-1.786050141158465E-12", "2.72378476274829E-13", "-6.579724242853555E-13"], ["2.242306514227543E-13", "-4.750086048867082E-13", "2.486953250741946E-10", "-4.356945584415433E-11", "2.058916449336505E-10", "9.815696073767334E-11"], ["8.490594994764384E-13", "-1.786050141158465E-12", "-4.356945584415433E-11", "9.861421227283494E-10", "-7.966617394735309E-10", "1.658814685665249E-10"], ["-1.077069619163068E-13", "2.72378476274829E-13", "2.058916449336505E-10", "-7.966617394735309E-10", "8.694815045049182E-10", "-8.723500136845922E-11"], ["3.050155797103485E-13", "-6.579724242853555E-13", "9.815696073767334E-11", "1.658814685665249E-10", "-8.723500136845922E-11", "1.913303446877479E-10"]]}, "elements": [{"label": "e", "name": "e", "sigma": "6.2279E-8", "units": null, "title": "eccentricity", "value": ".5940955582050462"}, {"value": "2.129677554459235", "title": "semi-major axis", "units": "au", "name": "a", "sigma": "3.2269E-8", "label": "a"}, {"name": "q", "sigma": "1.287E-7", "units": "au", "title": "perihelion distance", "value": ".864445578946018", "label": "q"}, {"label": "i", "name": "i", "sigma": "1.3837E-5", "title": "inclination; angle with respect to x-y ecliptic plane", "value": "20.00961351661135", "units": "deg"}, {"value": "14.31216495531156", "title": "longitude of the ascending node", "units": "deg", "name": "om", "sigma": "3.1364E-5", "label": "node"}, {"label": "peri", "sigma": "2.9466E-5", "name": "w", "units": "deg", "value": "134.6592921631403", "title": "argument of perihelion"}, {"label": "M", "sigma": "3.0371E-5", "name": "ma", "units": "deg", "title": "mean anomaly", "value": "228.8249438652771"}, {"label": "tp", "units": "TDB", "title": "time of perihelion passage", "value": "2461614.135653019992", "sigma": ".00010507", "name": "tp"}, {"title": "sidereal orbital period", "value": "1135.19170088451", "units": "d", "sigma": "2.5801E-5", "name": "per", "label": "period"}, {"label": "n", "units": "deg/d", "value": ".3171270541526139", "title": "mean motion", "name": "n", "sigma": "7.2077E-9"}, {"label": "Q", "name": "ad", "sigma": "5.144E-8", "value": "3.394909529972452", "title": "aphelion distance", "units": "au"}], "epoch": "2461200.5"}